KUIPER-00071            
1 64818U 25151C   25258.25003472 -.01882211  00000+0 -19694+0 0  9998
2 64818  51.8964 359.2713 0007353   9.0259 357.5775 14.92640106  5440
KUIPER-00072            
1 64819U 25151D   25257.97809763  .00026852  00000+0  74193-3 0  9991
2 64819  51.8797 354.7691 0006825   9.8276 350.2843 15.36836092  9327
KUIPER-00073            
1 64820U 25151E   25258.25003472 -.01872268  00000+0 -18680+0 0  9996
2 64820  51.8965 359.2835 0012372  33.8117 104.0835 14.94423593  4187
KUIPER-00074            
1 64821U 25151F   25258.25003472 -.00869019  00000+0 -31932-1 0  9993
2 64821  51.8820 353.6676 0008169   9.9473 298.0071 15.30050617  3917
KUIPER-00075            
1 64822U 25151G   25257.49941395  .00026280  00000+0  71009-3 0  9998
2 64822  51.8772 356.8275 0005986 354.1595   5.9321 15.37546403  9254
KUIPER-00076            
1 64823U 25151H   25258.25003472 -.00676175  00000+0 -31432-1 0  9999
2 64823  51.8815 354.2092 0007093  21.3094  53.2735 15.22092681  5439
KUIPER-00077            
1 64824U 25151J   25258.25003472 -.00685663  00000+0 -45625-1 0  9991
2 64824  51.9058 356.0614 0005416 340.3811 287.3514 15.09184619  5587
KUIPER-00078            
1 64825U 25151K   25258.25003472 -.00620724  00000+0 -33988-1 0  9998
2 64825  51.8817 355.0408 0010394  49.9151 344.9782 15.16218356  5031
